IRIDIUM 57              
1 25273U 98019B   24131.91608707  .00000962  00000+0  32990-3 0  9997
2 25273  86.3925 313.7442 0002150  89.0489 271.0954 14.35189399367077
IRIDIUM 63              
1 25286U 98021B   24132.37221767  .00004041  00000+0  13916-2 0  9990
2 25286  86.3988 250.4273 0002287  95.9491 264.1967 14.35753864366440
IRIDIUM 69              
1 25319U 98026A   24132.40983556  .00004965  00000+0  15717-2 0  9993
2 25319  86.3959 264.9158 0000262 230.1188 129.9988 14.39977348365465
IRIDIUM 71              
1 25320U 98026B   24132.34841283  .00004323  00000+0  13591-2 0  9994
2 25320  86.3965 259.7076 0002136  31.9434 328.1894 14.40291837365988
IRIDIUM 73              
1 25344U 98032C   24131.63607937  .00001290  00000+0  32467-3 0  9998
2 25344  86.4471 217.5017 0001673  95.8233 264.3162 14.50491552372181
IRIDIUM 82              
1 25467U 98051A   24132.48826478  .00045085  00000+0  23253-2 0  9994
2 25467  86.3716 303.1765 0128723 356.5878   3.4465 15.09154579362950
IRIDIUM 2               
1 25527U 98066A   24132.56140469  .00447755  00000+0  29152-2 0  9999
2 25527  85.5021 327.0929 0003173 116.2139 243.9459 15.74674857401648
